start=new Date('2022-02-17T00:00:00.000Z').valueOf();
sats=[{"MEAN_ANOMALY":"288.4937","CLASSIFICATION_TYPE":"U","PERIOD":"95.592","EPOCH":"2022-02-16T20:06:05.692896","REF_FRAME":"TEME","OBJECT_TYPE":"PAYLOAD","DECAY_DATE":null,"APOAPSIS":"548.035","ELEMENT_SET_NO":"999","MEAN_MOTION":"15.06396741","RCS_SIZE":"LARGE","REV_AT_EPOCH":"11311","EPHEMERIS_TYPE":"0","CENTER_NAME":"EARTH","TLE_LINE1":"1 45059U 20006R   22047.83756589  .00001200  00000-0  99420-4 0  9998","MEAN_MOTION_DOT":"0.00001200","PERIAPSIS":"546.412","MEAN_MOTION_DDOT":"0.0000000000000","GP_ID":"196130622","INCLINATION":"53.0540","TLE_LINE2":"2 45059  53.0540  98.9157 0001172  71.6179 288.4937 15.06396741113113","TIME_SYSTEM":"UTC","LAUNCH_DATE":"2020-01-29","OBJECT_NAME":"STARLINK-1165","SITE":"AFETR","COUNTRY_CODE":"US","NORAD_CAT_ID":"45059","ECCENTRICITY":"0.00011720","MEAN_ELEMENT_THEORY":"SGP4","RA_OF_ASC_NODE":"98.9157","ARG_OF_PERICENTER":"71.6179","OBJECT_ID":"2020-006R","FILE":"3302660","BSTAR":"0.00009942000000","SEMIMAJOR_AXIS":"6925.359"},{"BSTAR":"0.00015498000000","FILE":"3302660","SEMIMAJOR_AXIS":"6925.358","MEAN_ELEMENT_THEORY":"SGP4","RA_OF_ASC_NODE":"98.9322","ARG_OF_PERICENTER":"62.0801","OBJECT_ID":"2020-006S","SITE":"AFETR","COUNTRY_CODE":"US","NORAD_CAT_ID":"45060","ECCENTRICITY":"0.00014870","OBJECT_NAME":"STARLINK-1166","INCLINATION":"53.0531","TLE_LINE2":"2 45060  53.0531  98.9322 0001487  62.0801 298.0338 15.06396867113115","TIME_SYSTEM":"UTC","LAUNCH_DATE":"2020-01-29","GP_ID":"196129370","MEAN_MOTION_DOT":"0.00002027","PERIAPSIS":"546.193","MEAN_MOTION_DDOT":"0.0000000000000","TLE_LINE1":"1 45060U 20006S   22047.83387919  .00002027  00000-0  15498-3 0  9997","EPHEMERIS_TYPE":"0","CENTER_NAME":"EARTH","MEAN_MOTION":"15.06396867","RCS_SIZE":"LARGE","REV_AT_EPOCH":"11311","DECAY_DATE":null,"APOAPSIS":"548.253","ELEMENT_SET_NO":"999","EPOCH":"2022-02-16T20:00:47.162016","REF_FRAME":"TEME","OBJECT_TYPE":"PAYLOAD","CLASSIFICATION_TYPE":"U","PERIOD":"95.592","MEAN_ANOMALY":"298.0338"},{"SITE":"AFETR","COUNTRY_CODE":"US","NORAD_CAT_ID":"45061","ECCENTRICITY":"0.00013720","OBJECT_NAME":"STARLINK-1169","BSTAR":"0.00002799500000","FILE":"3302660","SEMIMAJOR_AXIS":"6925.373","RA_OF_ASC_NODE":"98.9096","MEAN_ELEMENT_THEORY":"SGP4","OBJECT_ID":"2020-006T","ARG_OF_PERICENTER":"65.4493","INCLINATION":"53.0553","TIME_SYSTEM":"UTC","LAUNCH_DATE":"2020-01-29","TLE_LINE2":"2 45061  53.0553  98.9096 0001372  65.4493 294.6639 15.06392051113112","GP_ID":"196129121","EPHEMERIS_TYPE":"0","CENTER_NAME":"EARTH","RCS_SIZE":"LARGE","MEAN_MOTION":"15.06392051","REV_AT_EPOCH":"11311","PERIAPSIS":"546.288","MEAN_MOTION_DOT":"0.00000135","MEAN_MOTION_DDOT":"0.0000000000000","TLE_LINE1":"1 45061U 20006T   22047.84125279  .00000135  00000-0  27995-4 0  9992","PERIOD":"95.593","CLASSIFICATION_TYPE":"U","MEAN_ANOMALY":"294.6639","APOAPSIS":"548.188","DECAY_DATE":null,"ELEMENT_SET_NO":"999","EPOCH":"2022-02-16T20:11:24.241056","OBJECT_TYPE":"PAYLOAD","REF_FRAME":"TEME"},{"MEAN_MOTION_DOT":"0.00002259","PERIAPSIS":"546.219","MEAN_MOTION_DDOT":"0.0000000000000","TLE_LINE1":"1 45062U 20006U   22047.82650151  .00002259  00000-0  17048-3 0  9999","EPHEMERIS_TYPE":"0","CENTER_NAME":"EARTH","RCS_SIZE":"LARGE","MEAN_MOTION":"15.06404690","REV_AT_EPOCH":"11311","DECAY_DATE":null,"APOAPSIS":"548.180","ELEMENT_SET_NO":"999","EPOCH":"2022-02-16T19:50:09.730464","REF_FRAME":"TEME","OBJECT_TYPE":"PAYLOAD","CLASSIFICATION_TYPE":"U","PERIOD":"95.592","MEAN_ANOMALY":"286.9051","FILE":"3302660","BSTAR":"0.00017048000000","SEMIMAJOR_AXIS":"6925.334","MEAN_ELEMENT_THEORY":"SGP4","RA_OF_ASC_NODE":"98.9569","OBJECT_ID":"2020-006U","ARG_OF_PERICENTER":"73.2093","SITE":"AFETR","COUNTRY_CODE":"US","NORAD_CAT_ID":"45062","ECCENTRICITY":"0.00014160","OBJECT_NAME":"STARLINK-1171","INCLINATION":"53.0537","TLE_LINE2":"2 45062  53.0537  98.9569 0001416  73.2093 286.9051 15.06404690113117","LAUNCH_DATE":"2020-01-29","TIME_SYSTEM":"UTC","GP_ID":"196130372"},{"EPOCH":"2022-02-16T18:33:12.631968","OBJECT_TYPE":"PAYLOAD","REF_FRAME":"TEME","APOAPSIS":"548.234","DECAY_DATE":null,"ELEMENT_SET_NO":"999","MEAN_ANOMALY":"290.4124","PERIOD":"95.592","CLASSIFICATION_TYPE":"U","TLE_LINE1":"1 45064U 20006W   22047.77306287  .00001730  00000-0  13500-3 0  9995","PERIAPSIS":"546.193","MEAN_MOTION_DOT":"0.00001730","MEAN_MOTION_DDOT":"0.0000000000000","RCS_SIZE":"LARGE","MEAN_MOTION":"15.06400004","REV_AT_EPOCH":"11338","EPHEMERIS_TYPE":"0","CENTER_NAME":"EARTH","GP_ID":"196130123","INCLINATION":"53.0552","TIME_SYSTEM":"UTC","LAUNCH_DATE":"2020-01-29","TLE_LINE2":"2 45064  53.0552  79.1943 0001474  69.7023 290.4124 15.06400004113385","RA_OF_ASC_NODE":"79.1943","MEAN_ELEMENT_THEORY":"SGP4","ARG_OF_PERICENTER":"69.7023","OBJECT_ID":"2020-006W","BSTAR":"0.00013500000000","FILE":"3302660","SEMIMAJOR_AXIS":"6925.349","OBJECT_NAME":"STARLINK-1133","SITE":"AFETR","COUNTRY_CODE":"US","NORAD_CAT_ID":"45064","ECCENTRICITY":"0.00014740"},{"OBJECT_NAME":"STARLINK-1139","COUNTRY_CODE":"US","SITE":"AFETR","NORAD_CAT_ID":"45065","ECCENTRICITY":"0.00014590","RA_OF_ASC_NODE":"79.1936","MEAN_ELEMENT_THEORY":"SGP4","ARG_OF_PERICENTER":"73.1646","OBJECT_ID":"2020-006X","BSTAR":"0.00013911000000","FILE":"3302660","SEMIMAJOR_AXIS":"6925.346","GP_ID":"196128871","INCLINATION":"53.0531","LAUNCH_DATE":"2020-01-29","TIME_SYSTEM":"UTC","TLE_LINE2":"2 45065  53.0531  79.1936 0001459  73.1646 286.9503 15.06400785113385","MEAN_MOTION":"15.06400785","RCS_SIZE":"LARGE","REV_AT_EPOCH":"11338","EPHEMERIS_TYPE":"0","CENTER_NAME":"EARTH","TLE_LINE1":"1 45065U 20006X   22047.77674677  .00001791  00000-0  13911-3 0  9990","PERIAPSIS":"546.201","MEAN_MOTION_DOT":"0.00001791","MEAN_MOTION_DDOT":"0.0000000000000","MEAN_ANOMALY":"286.9503","PERIOD":"95.592","CLASSIFICATION_TYPE":"U","EPOCH":"2022-02-16T18:38:30.920928","OBJECT_TYPE":"PAYLOAD","REF_FRAME":"TEME","APOAPSIS":"548.222","DECAY_DATE":null,"ELEMENT_SET_NO":"999"},{"MEAN_ANOMALY":"295.0435","PERIOD":"95.593","CLASSIFICATION_TYPE":"U","OBJECT_TYPE":"PAYLOAD","REF_FRAME":"TEME","EPOCH":"2022-02-16T19:36:54.418464","ELEMENT_SET_NO":"999","APOAPSIS":"548.190","DECAY_DATE":null,"REV_AT_EPOCH":"11338","RCS_SIZE":"LARGE","MEAN_MOTION":"15.06390852","CENTER_NAME":"EARTH","EPHEMERIS_TYPE":"0","TLE_LINE1":"1 45066U 20006Y   22047.81729651  .00003201  00000-0  23372-3 0  9999","MEAN_MOTION_DDOT":"0.0000000000000","PERIAPSIS":"546.294","MEAN_MOTION_DOT":"0.00003201","GP_ID":"196129621","TIME_SYSTEM":"UTC","LAUNCH_DATE":"2020-01-29","TLE_LINE2":"2 45066  53.0543  79.0146 0001369  65.0696 295.0435 15.06390852113384","INCLINATION":"53.0543","OBJECT_NAME":"STARLINK-1145","NORAD_CAT_ID":"45066","ECCENTRICITY":"0.00013690","SITE":"AFETR","COUNTRY_CODE":"US","ARG_OF_PERICENTER":"65.0696","OBJECT_ID":"2020-006Y","RA_OF_ASC_NODE":"79.0146","MEAN_ELEMENT_THEORY":"SGP4","SEMIMAJOR_AXIS":"6925.377","FILE":"3302660","BSTAR":"0.00023372000000"},{"CENTER_NAME":"EARTH","EPHEMERIS_TYPE":"0","REV_AT_EPOCH":"11332","MEAN_MOTION":"15.06385595","RCS_SIZE":"LARGE","MEAN_MOTION_DDOT":"0.0000000000000","MEAN_MOTION_DOT":"0.00000367","PERIAPSIS":"546.087","TLE_LINE1":"1 45067U 20006Z   22047.36761091  .00000367  00000-0  43536-4 0  9999","CLASSIFICATION_TYPE":"U","PERIOD":"95.593","MEAN_ANOMALY":"283.7653","ELEMENT_SET_NO":"999","DECAY_DATE":null,"APOAPSIS":"548.429","REF_FRAME":"TEME","OBJECT_TYPE":"PAYLOAD","EPOCH":"2022-02-16T08:49:21.582624","NORAD_CAT_ID":"45067","ECCENTRICITY":"0.00016910","SITE":"AFETR","COUNTRY_CODE":"US","OBJECT_NAME":"STARLINK-1150","SEMIMAJOR_AXIS":"6925.393","FILE":"3301890","BSTAR":"0.00004353600000","OBJECT_ID":"2020-006Z","ARG_OF_PERICENTER":"76.3524","MEAN_ELEMENT_THEORY":"SGP4","RA_OF_ASC_NODE":"81.0105","TLE_LINE2":"2 45067  53.0544  81.0105 0001691  76.3524 283.7653 15.06385595113325","TIME_SYSTEM":"UTC","LAUNCH_DATE":"2020-01-29","INCLINATION":"53.0544","GP_ID":"196092025"},{"TLE_LINE2":"2 45068  53.0547  78.9017 0001380  71.9089 288.2050 15.06387837113386","TIME_SYSTEM":"UTC","LAUNCH_DATE":"2020-01-29","INCLINATION":"53.0547","GP_ID":"196130623","SEMIMAJOR_AXIS":"6925.386","FILE":"3302660","BSTAR":"0.00010633000000","ARG_OF_PERICENTER":"71.9089","OBJECT_ID":"2020-006AA","MEAN_ELEMENT_THEORY":"SGP4","RA_OF_ASC_NODE":"78.9017","NORAD_CAT_ID":"45068","ECCENTRICITY":"0.00013800","COUNTRY_CODE":"US","SITE":"AFETR","OBJECT_NAME":"STARLINK-1161","ELEMENT_SET_NO":"999","DECAY_DATE":null,"APOAPSIS":"548.207","REF_FRAME":"TEME","OBJECT_TYPE":"PAYLOAD","EPOCH":"2022-02-16T19:19:37.490592","CLASSIFICATION_TYPE":"U","PERIOD":"95.593","MEAN_ANOMALY":"288.2050","MEAN_MOTION_DDOT":"0.0000000000000","MEAN_MOTION_DOT":"0.00001302","PERIAPSIS":"546.295","TLE_LINE1":"1 45068U 20006AA  22047.80529503  .00001302  00000-0  10633-3 0  9990","CENTER_NAME":"EARTH","EPHEMERIS_TYPE":"0","REV_AT_EPOCH":"11338","RCS_SIZE":"LARGE","MEAN_MOTION":"15.06387837"},{"SEMIMAJOR_AXIS":"6925.336","FILE":"3302660","BSTAR":"0.00014797000000","ARG_OF_PERICENTER":"58.6409","OBJECT_ID":"2020-006AD","MEAN_ELEMENT_THEORY":"SGP4","RA_OF_ASC_NODE":"79.0932","NORAD_CAT_ID":"45071","ECCENTRICITY":"0.00016050","COUNTRY_CODE":"US","SITE":"AFETR","OBJECT_NAME":"STARLINK-1167","TLE_LINE2":"2 45071  53.0538  79.0932 0001605  58.6409 301.4736 15.06404251113385","LAUNCH_DATE":"2020-01-29","TIME_SYSTEM":"UTC","INCLINATION":"53.0538","GP_ID":"196129371","MEAN_MOTION_DDOT":"0.0000000000000","MEAN_MOTION_DOT":"0.00001923","PERIAPSIS":"546.089","TLE_LINE1":"1 45071U 20006AD  22047.79885364  .00001923  00000-0  14797-3 0  9996","CENTER_NAME":"EARTH","EPHEMERIS_TYPE":"0","REV_AT_EPOCH":"11338","RCS_SIZE":"LARGE","MEAN_MOTION":"15.06404251","ELEMENT_SET_NO":"999","DECAY_DATE":null,"APOAPSIS":"548.312","REF_FRAME":"TEME","OBJECT_TYPE":"PAYLOAD","EPOCH":"2022-02-16T19:10:20.954496","CLASSIFICATION_TYPE":"U","PERIOD":"95.592","MEAN_ANOMALY":"301.4736"}];
